NUSAT-48 (HENRIETTA LE*)
1 60498U 24149AG  26068.80506098  .00012988  00000+0  45212-3 0  9999
2 60498  97.3923 150.8264 0002754 263.3026  96.7901 15.29812597 86946
STARLINK-36101          
1 66867U 25281V   26068.18094528  .00035260  00000+0  12848-2 0  9990
2 66867  42.9984 346.6993 0000609 308.8526  51.2271 15.27578133 16094
